JY1SAT (JO-97)          
1 43803U 18099AX  26068.68634132  .00017774  00000+0  60804-3 0  9996
2 43803  97.4249 131.3625 0004723 256.6795 103.3919 15.30302628398390
STARLINK-31234          
1 59043U 24038W   26068.21569100  .00000239  00000+0  18224-4 0  9998
2 59043  43.0028  26.4213 0000775 289.2541  70.8227 15.27568027114610
